GLOBALSTAR M001         
1 25162U 98008A   25332.40990031 -.00000092  00000+0  37148-4 0  9990
2 25162  52.0019 215.2367 0000414 226.3019 304.8393 12.38221857264059
GLOBALSTAR M004         
1 25163U 98008B   25332.57393347 -.00000075  00000+0  15869-3 0  9992
2 25163  52.0011 272.6428 0002911 307.2767 223.9219 12.63409117282468
GLOBALSTAR M002         
1 25164U 98008C   25332.27645452 -.00000059  00000+0  34568-3 0  9996
2 25164  51.9985 188.7774 0002627  81.6371 278.4747 11.61513638203135
GLOBALSTAR M003         
1 25165U 98008D   25332.54583221 -.00000186  00000+0 -10283-2 0  9991
2 25165  51.9924  73.2987 0007451 261.4312 111.7896 12.12045944253154
GLOBALSTAR M014         
1 25306U 98023A   25332.62437491 -.00000057  00000+0  38797-3 0  9998
2 25306  51.9822 107.6674 0000172  56.5480  28.3132 11.65484056210343
GLOBALSTAR M006         
1 25307U 98023B   25332.53173500 -.00000060  00000+0  31258-3 0  9996
2 25307  51.9896 166.5203 0004198  57.9174 327.0912 11.58178482235879
GLOBALSTAR M015         
1 25308U 98023C   25332.60348679  .00000013  00000+0  19680-2 0  9997
2 25308  51.9829 272.3494 0013026   9.9936 160.9379 11.48862065212970
GLOBALSTAR M008         
1 25309U 98023D   25332.61809082 -.00000090  00000+0  49072-4 0  9995
2 25309  51.9972  81.3215 0003310 152.4256 221.6312 12.36076295258188
